OBJECT_NAME,OBJECT_ID,EPOCH,MEAN_MOTION,ECCENTRICITY,INCLINATION,RA_OF_ASC_NODE,ARG_OF_PERICENTER,MEAN_ANOMALY,EPHEMERIS_TYPE,CLASSIFICATION_TYPE,NORAD_CAT_ID,ELEMENT_SET_NO,REV_AT_EPOCH,BSTAR,MEAN_MOTION_DOT,MEAN_MOTION_DDOT
STARLINK-37975,2026-147D,2026-07-01T22:00:01.999584,15.99012261,.00012886,97.2835,218.4814,64.0829,48.8622,0,U,69707,999,161,-.4825578E-2,-.2286378E-1,.15236118E-2
STARLINK-37972,2026-147E,2026-07-01T22:00:01.999584,15.99170281,.00012715,97.2834,218.4818,62.7060,51.0965,0,U,69708,999,161,-.4735641E-2,-.2263819E-1,.14973468E-2
STARLINK-37963,2026-147F,2026-07-01T22:00:01.999584,15.99327778,.00013233,97.2834,218.4819,64.8477,49.7841,0,U,69709,999,161,-.46615818E-2,-.2248286E-1,.14802708E-2
STARLINK-37969,2026-147G,2026-07-01T22:00:01.999584,15.99490576,.00012634,97.2833,218.4824,65.8890,49.5896,0,U,69710,999,176,-.45909892E-2,-.223464E-1,.14657747E-2
STARLINK-37956,2026-147H,2026-07-01T22:00:01.999584,15.99601725,.0001326,97.2834,218.4828,63.0369,53.1344,0,U,69711,999,161,-.44968553E-2,-.2202797E-1,.14274387E-2
STARLINK-38043,2026-147J,2026-07-01T22:00:01.999584,15.99740529,.00014473,97.2832,218.4829,69.1005,47.9083,0,U,69712,999,161,-.43871806E-2,-.2166263E-1,.13843045E-2
STARLINK-38020,2026-147K,2026-07-01T22:00:01.999584,15.99902047,.00014074,97.2832,218.4833,68.1675,49.6881,0,U,69713,999,161,-.4330425E-2,-.2157862E-1,.13766581E-2
STARLINK-38059,2026-147L,2026-07-01T22:00:01.999584,16.00036664,.00013585,97.2831,218.4838,59.1528,59.4619,0,U,69714,999,161,-.42598695E-2,-.2139054E-1,.13558082E-2
STARLINK-38061,2026-147M,2026-07-01T22:00:01.999584,16.00179243,.00014448,97.2831,218.4841,66.4972,52.9107,0,U,69715,999,170,-.42016517E-2,-.2127048E-1,.13435013E-2
STARLINK-38060,2026-147N,2026-07-01T22:00:01.999584,16.00301720,.00014262,97.2830,218.4844,59.1081,61.0643,0,U,69716,999,170,-.41213819E-2,-.2101172E-1,.13141549E-2
STARLINK-38040,2026-147P,2026-07-01T22:00:01.999584,16.00421049,.0001378,97.2831,218.4847,64.2169,56.6765,0,U,69717,999,170,-.4052524E-2,-.2080286E-1,.12910207E-2
STARLINK-37989,2026-147Q,2026-07-01T22:00:01.999584,16.00559415,.00017232,97.2830,218.4847,62.4761,59.2490,0,U,69718,999,170,-.39738317E-2,-.2056358E-1,.12647872E-2
STARLINK-38039,2026-147R,2026-07-01T22:00:01.999584,16.00682435,.0001666,97.2830,218.4850,60.8104,61.6743,0,U,69719,999,170,-.39056427E-2,-.2035461E-1,.12421184E-2
STARLINK-38003,2026-147S,2026-07-01T22:00:01.999584,16.00842657,.00015287,97.2829,218.4853,63.9874,59.3789,0,U,69720,999,170,-.38522211E-2,-.2026097E-1,.12335937E-2
STARLINK-38014,2026-147T,2026-07-01T22:00:01.999584,16.00947842,.0001483,97.2829,218.4856,60.4800,63.5786,0,U,69721,999,170,-.37878245E-2,-.2004439E-1,.1210033E-2
STARLINK-37915,2026-147U,2026-07-01T22:00:01.999584,16.01110040,.00012801,97.2830,218.4859,62.6851,62.2247,0,U,69722,999,170,-.37558141E-2,-.2005959E-1,.12141767E-2
STARLINK-38007,2026-147V,2026-07-01T22:00:01.999584,16.01216628,.00012147,97.2830,218.4862,59.7232,65.9182,0,U,69723,999,170,-.36871003E-2,-.198156E-1,.11876504E-2
STARLINK-38008,2026-147W,2026-07-01T22:00:01.999584,16.01320988,.00013308,97.2830,218.4866,61.1382,65.1760,0,U,69724,999,170,-.3634536E-2,-.1965253E-1,.11705527E-2
STARLINK-38021,2026-147X,2026-07-01T22:00:01.999584,16.01466104,.00012561,97.2829,218.4871,57.4124,70.0030,0,U,69725,999,170,-.35840164E-2,-.195427E-1,.11601542E-2
STARLINK-38015,2026-147Y,2026-07-01T22:00:01.999584,16.01423559,.00007906,97.2830,218.4876,12.4753,115.8324,0,U,69726,999,170,-.32220413E-2,-.1754629E-1,.94570525E-3
STARLINK-38010,2026-147Z,2026-07-01T22:00:01.999584,16.01622647,.00013791,97.2829,218.4877,58.9854,70.0025,0,U,69727,999,170,-.33080859E-2,-.1821604E-1,.10172471E-2
SXM-11,2026-148A,2026-07-01T19:27:46.299456,3.36250226,.64808807,26.8832,144.5813,177.3988,189.3958,0,U,69728,999,11,0,-.235E-5,0
