STARLINK-37975          
1 69707U 26147D   26182.91668981 -.02286378  15236-2 -48256-2 0  9990
2 69707  97.2835 218.4814 0001288  64.0829  48.8622 15.99012261  1615
STARLINK-37972          
1 69708U 26147E   26182.91668981 -.02263819  14973-2 -47356-2 0  9993
2 69708  97.2834 218.4818 0001271  62.7060  51.0965 15.99170281  1616
STARLINK-37963          
1 69709U 26147F   26182.91668981 -.02248286  14803-2 -46616-2 0  9995
2 69709  97.2834 218.4819 0001323  64.8477  49.7841 15.99327778  1613
STARLINK-37969          
1 69710U 26147G   26182.91668981 -.02234640  14658-2 -45910-2 0  9990
2 69710  97.2833 218.4824 0001263  65.8890  49.5896 15.99490576  1764
STARLINK-37956          
1 69711U 26147H   26182.91668981 -.02202797  14274-2 -44969-2 0  9996
2 69711  97.2834 218.4828 0001326  63.0369  53.1344 15.99601725  1614
STARLINK-38043          
1 69712U 26147J   26182.91668981 -.02166263  13843-2 -43872-2 0  9997
2 69712  97.2832 218.4829 0001447  69.1005  47.9083 15.99740529  1619
STARLINK-38020          
1 69713U 26147K   26182.91668981 -.02157862  13767-2 -43304-2 0  9998
2 69713  97.2832 218.4833 0001407  68.1675  49.6881 15.99902047  1613
STARLINK-38059          
1 69714U 26147L   26182.91668981 -.02139054  13558-2 -42599-2 0  9995
2 69714  97.2831 218.4838 0001358  59.1528  59.4619 16.00036664  1614
STARLINK-38061          
1 69715U 26147M   26182.91668981 -.02127048  13435-2 -42017-2 0  9995
2 69715  97.2831 218.4841 0001444  66.4972  52.9107 16.00179243  1700
STARLINK-38060          
1 69716U 26147N   26182.91668981 -.02101172  13142-2 -41214-2 0  9999
2 69716  97.2830 218.4844 0001426  59.1081  61.0643 16.00301720  1706
STARLINK-38040          
1 69717U 26147P   26182.91668981 -.02080286  12910-2 -40525-2 0  9998
2 69717  97.2831 218.4847 0001378  64.2169  56.6765 16.00421049  1703
STARLINK-37989          
1 69718U 26147Q   26182.91668981 -.02056358  12648-2 -39738-2 0  9994
2 69718  97.2830 218.4847 0001723  62.4761  59.2490 16.00559415  1708
STARLINK-38039          
1 69719U 26147R   26182.91668981 -.02035461  12421-2 -39056-2 0  9999
2 69719  97.2830 218.4850 0001666  60.8104  61.6743 16.00682435  1709
STARLINK-38003          
1 69720U 26147S   26182.91668981 -.02026097  12336-2 -38522-2 0  9998
2 69720  97.2829 218.4853 0001528  63.9874  59.3789 16.00842657  1705
STARLINK-38014          
1 69721U 26147T   26182.91668981 -.02004439  12100-2 -37878-2 0  9997
2 69721  97.2829 218.4856 0001483  60.4800  63.5786 16.00947842  1706
STARLINK-37915          
1 69722U 26147U   26182.91668981 -.02005959  12142-2 -37558-2 0  9997
2 69722  97.2830 218.4859 0001280  62.6851  62.2247 16.01110040  1708
STARLINK-38007          
1 69723U 26147V   26182.91668981 -.01981560  11877-2 -36871-2 0  9999
2 69723  97.2830 218.4862 0001214  59.7232  65.9182 16.01216628  1707
STARLINK-38008          
1 69724U 26147W   26182.91668981 -.01965253  11706-2 -36345-2 0  9998
2 69724  97.2830 218.4866 0001330  61.1382  65.1760 16.01320988  1703
STARLINK-38021          
1 69725U 26147X   26182.91668981 -.01954270  11602-2 -35840-2 0  9990
2 69725  97.2829 218.4871 0001256  57.4124  70.0030 16.01466104  1703
STARLINK-38015          
1 69726U 26147Y   26182.91668981 -.01754629  94571-3 -32220-2 0  9993
2 69726  97.2830 218.4876 0000790  12.4753 115.8324 16.01423559  1703
STARLINK-38010          
1 69727U 26147Z   26182.91668981 -.01821604  10172-2 -33081-2 0  9992
2 69727  97.2829 218.4877 0001379  58.9854  70.0025 16.01622647  1703
SXM-11                  
1 69728U 26148A   26182.81095254 -.00000235  00000+0  00000+0 0  9995
2 69728  26.8832 144.5813 6480880 177.3988 189.3958  3.36250226   110
